CCSDS_OMM_VERS = 2.0
CREATION_DATE  = 
ORIGINATOR     = 

OBJECT_NAME    = XRISM
OBJECT_ID      = 2023-137A
CENTER_NAME    = EARTH
REF_FRAME      = TEME
TIME_SYSTEM    = UTC
MEAN_ELEMENT_THEORY = SGP/SGP4

EPOCH          = 2026-03-19T19:26:18.464352
MEAN_MOTION    = 15.11607413
ECCENTRICITY   = .00079282
INCLINATION    = 31.0011
RA_OF_ASC_NODE = 218.1974
ARG_OF_PERICENTER = 140.8254
MEAN_ANOMALY   = 219.2959

EPHEMERIS_TYPE = 0
CLASSIFICATION_TYPE = U
NORAD_CAT_ID   = 57800
ELEMENT_SET_NO = 999
REV_AT_EPOCH   = 13932
BSTAR          = .27027066E-3
MEAN_MOTION_DOT = .4804E-4
MEAN_MOTION_DDOT = 0

CCSDS_OMM_VERS = 2.0
CREATION_DATE  = 
ORIGINATOR     = 

OBJECT_NAME    = ACS3
OBJECT_ID      = 2024-077B
CENTER_NAME    = EARTH
REF_FRAME      = TEME
TIME_SYSTEM    = UTC
MEAN_ELEMENT_THEORY = SGP/SGP4

EPOCH          = 2026-03-19T19:01:38.997408
MEAN_MOTION    = 13.90064551
ECCENTRICITY   = .00683497
INCLINATION    = 97.2017
RA_OF_ASC_NODE = 17.6345
ARG_OF_PERICENTER = 52.9305
MEAN_ANOMALY   = 307.8082

EPHEMERIS_TYPE = 0
CLASSIFICATION_TYPE = U
NORAD_CAT_ID   = 59588
ELEMENT_SET_NO = 999
REV_AT_EPOCH   = 9560
BSTAR          = .19790007E-1
MEAN_MOTION_DOT = .24936E-3
MEAN_MOTION_DDOT = 0

CCSDS_OMM_VERS = 2.0
CREATION_DATE  = 
ORIGINATOR     = 

OBJECT_NAME    = SZ-21 MODULE
OBJECT_ID      = 2025-246C
CENTER_NAME    = EARTH
REF_FRAME      = TEME
TIME_SYSTEM    = UTC
MEAN_ELEMENT_THEORY = SGP/SGP4

EPOCH          = 2026-03-19T13:23:07.005408
MEAN_MOTION    = 15.69284939
ECCENTRICITY   = .00003857
INCLINATION    = 41.4733
RA_OF_ASC_NODE = 142.5807
ARG_OF_PERICENTER = 277.1861
MEAN_ANOMALY   = 82.8937

EPHEMERIS_TYPE = 0
CLASSIFICATION_TYPE = U
NORAD_CAT_ID   = 66515
ELEMENT_SET_NO = 999
REV_AT_EPOCH   = 1962
BSTAR          = .23011364E-3
MEAN_MOTION_DOT = .27418E-3
MEAN_MOTION_DDOT = 0

